ONEWEB-0298             
1 49087U 21075N   23295.77771916 -.00000121  00000+0 -34463-3 0  9997
2 49087  87.9270 198.3356 0001835  82.4527 277.6813 13.17647745106098
ONEWEB-0299             
1 49088U 21075P   23295.77984228  .00000090  00000+0  19885-3 0  9994
2 49088  87.9198 198.3322 0001708  85.1174 275.0152 13.17649284106074
ONEWEB-0300             
1 49089U 21075Q   23295.96792484 -.00000008  00000+0 -56857-4 0  9999
2 49089  87.9057 183.1991 0001922  78.4573 281.6771 13.12443363108201
ONEWEB-0301             
1 49090U 21075R   23295.95310389 -.00000290  00000+0 -84173-3 0  9994
2 49090  87.9063 183.2039 0002086  71.0805 289.0549 13.12442286107569
ONEWEB-0302             
1 49091U 21075S   23295.94144635 -.00000261  00000+0 -75960-3 0  9995
2 49091  87.9061 183.2033 0001490  80.1772 279.9524 13.12443578107548
ONEWEB-0304             
1 49092U 21075T   23295.75663602 -.00000053  00000+0 -17057-3 0  9997
2 49092  87.9254 198.3398 0001764  80.8459 279.2872 13.17649202106047
ONEWEB-0305             
1 49093U 21075U   23296.20170532  .00000142  00000+0  33325-3 0  9997
2 49093  87.9186 198.2406 0001630  91.7713 268.3605 13.17650104107101
ONEWEB-0308             
1 49094U 21075V   23295.93615132 -.00000105  00000+0 -32745-3 0  9993
2 49094  87.9061 183.2068 0001806  74.2125 285.9203 13.12440286107551
